[{"OBJECT_NAME":"STARLINK-4505","OBJECT_ID":"2022-101AF","EPOCH":"2026-03-09T23:35:19.635360","MEAN_MOTION":15.08841872,"ECCENTRICITY":0.00013518,"INCLINATION":53.2169,"RA_OF_ASC_NODE":62.8018,"ARG_OF_PERICENTER":88.6158,"MEAN_ANOMALY":271.4989,"EPHEMERIS_TYPE":0,"CLASSIFICATION_TYPE":"U","NORAD_CAT_ID":53556,"ELEMENT_SET_NO":999,"REV_AT_EPOCH":19635,"BSTAR":2.8362219e-5,"MEAN_MOTION_DOT":1.64e-6,"MEAN_MOTION_DDOT":0},{"OBJECT_NAME":"OBJECT A","OBJECT_ID":"2024-205A","EPOCH":"2026-03-09T23:47:25.060128","MEAN_MOTION":15.10420635,"ECCENTRICITY":0.00183963,"INCLINATION":97.4208,"RA_OF_ASC_NODE":142.0688,"ARG_OF_PERICENTER":137.3438,"MEAN_ANOMALY":222.9224,"EPHEMERIS_TYPE":0,"CLASSIFICATION_TYPE":"U","NORAD_CAT_ID":61894,"ELEMENT_SET_NO":999,"REV_AT_EPOCH":7322,"BSTAR":0.00061451018,"MEAN_MOTION_DOT":0.00010084,"MEAN_MOTION_DDOT":0}]
